{
  "type": "FeatureCollection",
  "features": [
    {
      "type": "Feature",
      "properties": {
        "norad_id": 41890,
        "name": "CYGFM07",
        "group": "weather",
        "lat": 6.339691898183104,
        "lon": 95.04756887545378,
        "alt_km": 418.88151068030857,
        "timestamp": "2025-12-27T13:34:48.932877+00:00",
        "meta_object_name": "CYGFM07",
        "meta_object_id": "2016-078G",
        "meta_epoch": "2025-12-27T05:07:48.574560",
        "meta_mean_motion": 15.50634821,
        "meta_eccentricity": 0.00089603,
        "meta_inclination": 34.9473,
        "meta_ra_of_asc_node": 286.5126,
        "meta_arg_of_pericenter": 338.6646,
        "meta_mean_anomaly": 21.3702,
        "meta_ephemeris_type": 0,
        "meta_classification_type": "U",
        "meta_norad_cat_id": 41890,
        "meta_element_set_no": 999,
        "meta_rev_at_epoch": 50220,
        "meta_bstar": 0.00041585653,
        "meta_mean_motion_dot": 0.00024657,
        "meta_mean_motion_ddot": 0,
        "tle_line1": "1 41890U 16078G   25361.21375665  .00024657  00000+0  41586-3 0  9996",
        "tle_line2": "2 41890  34.9473 286.5126 0008960 338.6646  21.3702 15.50634821502202"
      },
      "geometry": {
        "type": "Point",
        "coordinates": [
          95.04756887545378,
          6.339691898183104
        ]
      }
    },
    {
      "type": "Feature",
      "properties": {
        "norad_id": 41891,
        "name": "CYGFM03",
        "group": "weather",
        "lat": -1.1587605062093023,
        "lon": -75.5303350704541,
        "alt_km": 408.9448609760466,
        "timestamp": "2025-12-27T13:34:48.932887+00:00",
        "meta_object_name": "CYGFM03",
        "meta_object_id": "2016-078H",
        "meta_epoch": "2025-12-27T04:19:02.955648",
        "meta_mean_motion": 15.50526979,
        "meta_eccentricity": 0.00088568,
        "meta_inclination": 34.9429,
        "meta_ra_of_asc_node": 288.6623,
        "meta_arg_of_pericenter": 324.6676,
        "meta_mean_anomaly": 35.3458,
        "meta_ephemeris_type": 0,
        "meta_classification_type": "U",
        "meta_norad_cat_id": 41891,
        "meta_element_set_no": 999,
        "meta_rev_at_epoch": 50217,
        "meta_bstar": 0.00045232571,
        "meta_mean_motion_dot": 0.00026727,
        "meta_mean_motion_ddot": 0,
        "tle_line1": "1 41891U 16078H   25361.17989532  .00026727  00000+0  45233-3 0  9999",
        "tle_line2": "2 41891  34.9429 288.6623 0008856 324.6676  35.3458 15.50526979502174"
      },
      "geometry": {
        "type": "Point",
        "coordinates": [
          -75.5303350704541,
          -1.1587605062093023
        ]
      }
    },
    {
      "type": "Feature",
      "properties": {
        "norad_id": 43010,
        "name": "FENGYUN 3D",
        "group": "weather",
        "lat": 39.764173950161464,
        "lon": 155.67051541467194,
        "alt_km": 822.1010443515288,
        "timestamp": "2025-12-27T13:34:48.932898+00:00",
        "meta_object_name": "FENGYUN 3D",
        "meta_object_id": "2017-072A",
        "meta_epoch": "2025-12-27T06:09:33.619968",
        "meta_mean_motion": 14.19689473,
        "meta_eccentricity": 0.00016299,
        "meta_inclination": 98.9917,
        "meta_ra_of_asc_node": 327.7857,
        "meta_arg_of_pericenter": 143.3546,
        "meta_mean_anomaly": 216.7741,
        "meta_ephemeris_type": 0,
        "meta_classification_type": "U",
        "meta_norad_cat_id": 43010,
        "meta_element_set_no": 999,
        "meta_rev_at_epoch": 42059,
        "meta_bstar": 0.00028620763,
        "meta_mean_motion_dot": 5.59e-06,
        "meta_mean_motion_ddot": 0,
        "tle_line1": "1 43010U 17072A   25361.25663912  .00000559  00000+0  28621-3 0  9996",
        "tle_line2": "2 43010  98.9917 327.7857 0001629 143.3546 216.7741 14.19689473420596"
      },
      "geometry": {
        "type": "Point",
        "coordinates": [
          155.67051541467194,
          39.764173950161464
        ]
      }
    },
    {
      "type": "Feature",
      "properties": {
        "norad_id": 43013,
        "name": "NOAA 20 (JPSS-1)",
        "group": "weather",
        "lat": -74.27761277203994,
        "lon": -29.079379193881117,
        "alt_km": 835.4052684336011,
        "timestamp": "2025-12-27T13:34:48.932909+00:00",
        "meta_object_name": "NOAA 20 (JPSS-1)",
        "meta_object_id": "2017-073A",
        "meta_epoch": "2025-12-27T07:10:31.598112",
        "meta_mean_motion": 14.19529744,
        "meta_eccentricity": 0.00020471,
        "meta_inclination": 98.7617,
        "meta_ra_of_asc_node": 297.4377,
        "meta_arg_of_pericenter": 66.5484,
        "meta_mean_anomaly": 293.5907,
        "meta_ephemeris_type": 0,
        "meta_classification_type": "U",
        "meta_norad_cat_id": 43013,
        "meta_element_set_no": 999,
        "meta_rev_at_epoch": 42008,
        "meta_bstar": 7.9520912e-05,
        "meta_mean_motion_dot": 1.24e-06,
        "meta_mean_motion_ddot": 0,
        "tle_line1": "1 43013U 17073A   25361.29897683  .00000124  00000+0  79521-4 0  9992",
        "tle_line2": "2 43013  98.7617 297.4377 0002047  66.5484 293.5907 14.19529744420081"
      },
      "geometry": {
        "type": "Point",
        "coordinates": [
          -29.079379193881117,
          -74.27761277203994
        ]
      }
    },
    {
      "type": "Feature",
      "properties": {
        "norad_id": 43226,
        "name": "GOES 17",
        "group": "weather",
        "lat": 0.4137757555168269,
        "lon": -149.54136465555976,
        "alt_km": 35781.458540838976,
        "timestamp": "2025-12-27T13:34:48.932922+00:00",
        "meta_object_name": "GOES 17",
        "meta_object_id": "2018-022A",
        "meta_epoch": "2025-12-27T05:39:55.783584",
        "meta_mean_motion": 1.00271285,
        "meta_eccentricity": 0.00032265,
        "meta_inclination": 0.4931,
        "meta_ra_of_asc_node": 88.9971,
        "meta_arg_of_pericenter": 191.2495,
        "meta_mean_anomaly": 171.2067,
        "meta_ephemeris_type": 0,
        "meta_classification_type": "U",
        "meta_norad_cat_id": 43226,
        "meta_element_set_no": 999,
        "meta_rev_at_epoch": 2870,
        "meta_bstar": 0,
        "meta_mean_motion_dot": -1.6e-06,
        "meta_mean_motion_ddot": 0,
        "tle_line1": "1 43226U 18022A   25361.23606231 -.00000160  00000+0  00000+0 0  9996",
        "tle_line2": "2 43226   0.4931  88.9971 0003226 191.2495 171.2067  1.00271285 28709"
      },
      "geometry": {
        "type": "Point",
        "coordinates": [
          -149.54136465555976,
          0.4137757555168269
        ]
      }
    },
    {
      "type": "Feature",
      "properties": {
        "norad_id": 43491,
        "name": "FENGYUN 2H",
        "group": "weather",
        "lat": -2.278167062575814,
        "lon": 19.3611932295908,
        "alt_km": 35793.796727574656,
        "timestamp": "2025-12-27T13:34:48.932934+00:00",
        "meta_object_name": "FENGYUN 2H",
        "meta_object_id": "2018-050A",
        "meta_epoch": "2025-12-27T03:06:20.070144",
        "meta_mean_motion": 1.00270024,
        "meta_eccentricity": 0.00024987,
        "meta_inclination": 2.5857,
        "meta_ra_of_asc_node": 81.1774,
        "meta_arg_of_pericenter": 167.0859,
        "meta_mean_anomaly": 333.5093,
        "meta_ephemeris_type": 0,
        "meta_classification_type": "U",
        "meta_norad_cat_id": 43491,
        "meta_element_set_no": 999,
        "meta_rev_at_epoch": 2771,
        "meta_bstar": 0,
        "meta_mean_motion_dot": -1.08e-06,
        "meta_mean_motion_ddot": 0,
        "tle_line1": "1 43491U 18050A   25361.12939896 -.00000108  00000+0  00000+0 0  9997",
        "tle_line2": "2 43491   2.5857  81.1774 0002498 167.0859 333.5093  1.00270024 27716"
      },
      "geometry": {
        "type": "Point",
        "coordinates": [
          19.3611932295908,
          -2.278167062575814
        ]
      }
    },
    {
      "type": "Feature",
      "properties": {
        "norad_id": 43689,
        "name": "METOP-C",
        "group": "weather",
        "lat": 11.232549544324609,
        "lon": -119.15263507312538,
        "alt_km": 822.001924435689,
        "timestamp": "2025-12-27T13:34:48.932952+00:00",
        "meta_object_name": "METOP-C",
        "meta_object_id": "2018-087A",
        "meta_epoch": "2025-12-27T06:01:57.847008",
        "meta_mean_motion": 14.21489951,
        "meta_eccentricity": 5.097e-05,
        "meta_inclination": 98.6909,
        "meta_ra_of_asc_node": 58.7971,
        "meta_arg_of_pericenter": 11.3019,
        "meta_mean_anomaly": 348.817,
        "meta_ephemeris_type": 0,
        "meta_classification_type": "U",
        "meta_norad_cat_id": 43689,
        "meta_element_set_no": 999,
        "meta_rev_at_epoch": 37040,
        "meta_bstar": 9.0065758e-05,
        "meta_mean_motion_dot": 1.53e-06,
        "meta_mean_motion_ddot": 0,
        "tle_line1": "1 43689U 18087A   25361.25136397  .00000153  00000+0  90066-4 0  9990",
        "tle_line2": "2 43689  98.6909  58.7971 0000509  11.3019 348.8170 14.21489951370408"
      },
      "geometry": {
        "type": "Point",
        "coordinates": [
          -119.15263507312538,
          11.232549544324609
        ]
      }
    }
  ]
}